INTELSAT 16 (IS-16)     
1 36397U 10006A   25138.47219207 -.00000234  00000+0  00000+0 0  9994
2 36397   0.0366  77.8336 0002628  11.5443 240.8189  1.00271687 55694
COSMOS 2460 [GLONASS-M] 
1 36402U 10007C   25138.23463154 -.00000021  00000+0  00000+0 0  9992
2 36402  65.6409 327.8017 0002196  73.9781  73.8738  2.13106242118319
EWS-G2 (GOES 15)        
1 36411U 10008A   25138.64551141  .00000046  00000+0  00000+0 0  9998
2 36411   0.2525  85.9720 0001255 120.8947 323.7698  1.00266890 55680
YAOGAN-9 01A            
1 36413U 10009A   25138.59442070 -.00000045  00000+0  36317-4 0  9990
2 36413  63.3700 298.7999 0503644  18.7625 343.1242 13.45594075746876
YAOGAN-9 01B            
1 36414U 10009B   25138.57648122 -.00000030  00000+0  47631-4 0  9990
2 36414  63.3713 298.4686 0504312  17.9686 343.8467 13.45603428746646
YAOGAN-9 01C            
1 36415U 10009C   25138.57515055 -.00000026  00000+0  50162-4 0  9997
2 36415  63.3709 299.0151 0505033  18.2901 343.5575 13.45602699746805
ECHOSTAR 14             
1 36499U 10010A   25138.63779319  .00000011  00000+0  00000+0 0  9997
2 36499   0.0154 284.5682 0001902 137.8600 284.8563  1.00272269 42590
CRYOSAT 2               
1 36508U 10013A   25138.58283307  .00000240  00000+0  58759-4 0  9995
2 36508  92.0110 182.0072 0001941 115.4006 244.7403 14.51913284800829
SES-1                   
1 36516U 10016A   25138.57146984 -.00000104  00000+0  00000+0 0  9996
2 36516   0.0152 320.5680 0002873 101.6318 279.0437  1.00272334 55076
COSMOS 2463             
1 36519U 10017A   25138.63524948  .00000049  00000+0  37114-4 0  9995
2 36519  82.9611 179.6096 0037108 143.1199 328.6891 13.71626911753849
ASTRA 3B                
1 36581U 10021A   25138.59614387  .00000148  00000+0  00000+0 0  9990
2 36581   0.4487  89.1872 0004048 331.7880  53.6771  1.00274134 54919
COMSATBW-2              
1 36582U 10021B   25138.59405874  .00000100  00000+0  00000+0 0  9998
2 36582   0.0438  97.1070 0001755 338.5029  28.0067  1.00276917 55009
NAVSTAR 65 (USA 213)    
1 36585U 10022A   25138.07603469  .00000015  00000+0  00000+0 0  9990
2 36585  54.3447 224.4851 0120760  64.0316 292.1935  2.00568342109661
BEIDOU-2 G3             
1 36590U 10024A   25138.62704888 -.00000125  00000+0  00000+0 0  9999
2 36590   3.5830  62.4102 0008951 343.8193 135.7195  1.00271114 54819
BADR-5                  
1 36592U 10025A   25138.55669753  .00000155  00000+0  00000+0 0  9997
2 36592   0.0464 124.1811 0004184 332.4180   6.3059  1.00269627 49264
SJ-12                   
1 36596U 10027A   25138.56120422  .00007000  00000+0  41303-3 0  9990
2 36596  97.7713 143.0801 0007785  25.6335 334.5279 15.11845595815149
TANDEM-X                
1 36605U 10030A   25138.57489413  .00001431  00000+0  71321-4 0  9990
2 36605  97.4448 146.9207 0001745  80.6399 279.5033 15.19155707826735
COMS 1                  
1 36744U 10032A   25138.60929156 -.00000333  00000+0  00000+0 0  9995
2 36744   3.7973  80.3035 0001083 335.7118 168.0078  1.00272166 47134
ARABSAT-5A              
1 36745U 10032B   25138.59753395  .00000164  00000+0  00000+0 0  9995
2 36745   0.0815  61.0675 0005079   6.3831  54.6747  1.00272999 54694
ECHOSTAR 15             
1 36792U 10034A   25138.47051104 -.00000213  00000+0  00000+0 0  9991
2 36792   0.0163  28.5578 0002018  22.7309 276.8824  1.00120971 54364
CARTOSAT-2B             
1 36795U 10035A   25138.56949758  .00001002  00000+0  14316-3 0  9991
2 36795  97.8103 193.9564 0012255  38.2399 321.9679 14.78750564801537
ALSAT 2A                
1 36798U 10035D   25138.56227998  .00001058  00000+0  16951-3 0  9997
2 36798  97.7653 152.7037 0002085  84.5813 275.5634 14.73642179795671
TISAT 1                 
1 36799U 10035E   25138.48612225  .00014112  00000+0  73512-3 0  9991
2 36799  98.0597  51.1736 0004072 142.0380 218.1139 15.16118330807625
BEIDOU-2 IGSO-1         
1 36828U 10036A   25138.37282895 -.00000065  00000+0  00000+0 0  9990
2 36828  54.2706 166.5301 0049513 217.2598  93.5545  1.00285969 54135
NILESAT 201             
1 36830U 10037A   25138.59006223 -.00000047  00000+0  00000+0 0  9997
2 36830   0.0467 116.4173 0004634 331.9404 353.6040  1.00272274 54402
RASCOM-QAF 1R           
1 36831U 10037B   25138.59206049  .00000029  00000+0  00000+0 0  9995
2 36831   0.0397  98.6644 0006406 318.9064  34.9807  1.00271887 54358
YAOGAN-10               
1 36834U 10038A   25138.61921468  .00000843  00000+0  10733-3 0  9993
2 36834  97.9268 159.8276 0001466  86.8562  27.1208 14.84175127798663
AEHF-1 (USA 214)        
1 36868U 10039A   25138.52603167  .00000160  00000+0  00000+0 0  9998
2 36868   7.2281  73.0851 0004656 344.7446  37.9377  1.00273765 49707
COSMOS 2467             
1 37152U 10043A   25138.59586759  .00000052  00000+0  30303-3 0  9997
2 37152  82.4549 311.8455 0000402 292.5723 133.6317 12.42969869666485
STRELA 3                
1 37153U 10043B   25138.61037509  .00000028  00000+0  13713-3 0  9994
2 37153  82.4564 324.1995 0007062 216.0314 144.0289 12.40782502665438
COSMOS 2468             
1 37154U 10043C   25138.59511832  .00000041  00000+0  22312-3 0  9998
2 37154  82.4586 309.2926 0015159  89.6759 341.6635 12.43731022666822
YAOGAN-11               
1 37165U 10047A   25138.51037054  .00001268  00000+0  16910-3 0  9994
2 37165  98.4293 340.1014 0036577  69.4862 291.0269 14.81107369789659
ZHEDA PIXING 1B         
1 37166U 10047B   25138.53979098  .00002938  00000+0  31611-3 0  9990
2 37166  97.9016 110.6226 0021346 137.6002 222.6869 14.89114556791994
ZHEDA PIXING 1C         
1 37167U 10047C   25138.53601326  .00002862  00000+0  30984-3 0  9995
2 37167  97.9333 112.6595 0020819 142.4706 217.7968 14.88899558791937
SBSS (USA 216)          
1 37168U 10048A   25138.62816110  .00004811  00000+0  25450-3 0  9994
2 37168  97.7882  11.2472 0089447 119.0865 268.1382 15.12505769792758
SHIJIAN-6 04A (SJ-6 04A)
1 37179U 10051A   25138.58533363  .00007457  00000+0  44035-3 0  9990
2 37179  97.8451 144.6533 0022567 136.6902 223.6106 15.11609240797213
SHIJIAN-6 04B (SJ-6 04B)
1 37180U 10051B   25138.58756841  .00001338  00000+0  11781-3 0  9994
2 37180  97.8591 135.4541 0010801 184.1432 175.9702 14.98188246796572
XM-5                    
1 37185U 10053A   25138.29775653 -.00000012  00000+0  00000+0 0  9998
2 37185   0.0341 279.8179 0002590 273.7208  34.7009  1.00271337 53524
GLOBALSTAR M079         
1 37188U 10054A   25138.55307569 -.00000076  00000+0  15404-3 0  9996
2 37188  52.0034 229.9960 0000553 165.7494 215.3655 12.62264524672713
GLOBALSTAR M074         
1 37189U 10054B   25138.49878471 -.00000078  00000+0  14192-3 0  9990
2 37189  52.0010 229.4899 0000298 125.8669 247.1813 12.62269631673311
GLOBALSTAR M076         
1 37190U 10054C   25138.63363980 -.00000085  00000+0  10713-3 0  9995
2 37190  52.0022 229.2461 0000300 168.6302 338.3568 12.62262731673046
GLOBALSTAR M077         
1 37191U 10054D   25138.62511962 -.00000096  00000+0  42165-4 0  9999
2 37191  52.0050 186.1218 0000190 147.4196  20.2693 12.62268247673417
GLOBALSTAR M075         
1 37192U 10054E   25138.61752472 -.00000066  00000+0  20951-3 0  9997
2 37192  51.9951 271.5694 0000672 113.9222 259.3273 12.62264894672115
GLOBALSTAR M073         
1 37193U 10054F   25138.56944098 -.00000091  00000+0  73147-4 0  9993
2 37193  52.0038 185.5140 0000174 188.0524 325.7458 12.62271648674096
BSAT-3B                 
1 37207U 10056B   25138.32765716 -.00000340  00000+0  00000+0 0  9993
2 37207   0.0415 241.7206 0000906 275.5517 306.8043  1.00272414 48142
BEIDOU-2 G4             
1 37210U 10057A   25138.58640319 -.00000101  00000+0  00000+0 0  9992
2 37210   2.6675  70.4580 0004386 197.0322 340.1351  1.00272469 53332
FENGYUN 3B              
1 37214U 10059A   25138.61685771  .00000079  00000+0  64677-4 0  9991
2 37214  99.0144 176.7866 0021403 222.1591 248.9403 14.14724827751631
COSMO-SKYMED 4          
1 37216U 10060A   25138.57475827  .00000627  00000+0  85341-4 0  9999
2 37216  97.8874 322.9062 0001309  85.8877 274.2485 14.82150654786115
SKYTERRA 1              
1 37218U 10061A   25138.53864222 -.00000107  00000+0  00000+0 0  9997
2 37218   4.2916  50.4919 0002866  16.9209 261.6479  1.00272010 53233
O/OREOS (USA 219)       
1 37224U 10062C   25138.43042298  .00003531  00000+0  35914-3 0  9994
2 37224  71.9716 252.8543 0013051 100.4704 259.7936 14.91361376 57741
HYLAS 1                 
1 37237U 10065A   25138.45409097 -.00000042  00000+0  00000+0 0  9996
2 37237   4.6395  77.8667 0002241  38.0038 187.5246  0.99645341  2920
INTELSAT 17 (IS-17)     
1 37238U 10065B   25138.46175398  .00000009  00000+0  00000+0 0  9994
2 37238   0.0054 308.8717 0002770 122.1070  37.6326  1.00270487 49297
BEIDOU-2 IGSO-2         
1 37256U 10068A   25138.32652772 -.00000196  00000+0  00000+0 0  9996
2 37256  48.2652 276.7183 0045408 212.4858 329.0912  1.00299542 52833
EUTELSAT KA-SAT 9A      
1 37258U 10069A   25138.62866023  .00000072  00000+0  00000+0 0  9990
2 37258   0.0584 300.8926 0004514 157.2631  13.7234  1.00270931 40053
HISPASAT 30W-5          
1 37264U 10070A   25138.41850365 -.00000205  00000+0  00000+0 0  9997
2 37264   0.0567 109.1705 0004657 335.9284 271.9471  1.00272297 49229
KOREASAT 6              
1 37265U 10070B   25138.54141839 -.00000101  00000+0  00000+0 0  9996
2 37265   0.0151 348.6280 0002017  67.1813 175.4622  1.00272047 52815
BEIDOU-2 IGSO-3         
1 37384U 11013A   25138.50453187 -.00000188  00000+0  00000+0 0  9999
2 37384  61.8442  43.8930 0030120 178.6759 304.0466  1.00273835 51703
RESOURCESAT-2           
1 37387U 11015A   25138.59121372  .00000188  00000+0  10597-3 0  9996
2 37387  98.8094 202.7580 0004665 273.8370  86.2274 14.21573514730117
YOUTHSAT                
1 37388U 11015B   25138.55440003  .00000281  00000+0  13641-3 0  9995
2 37388  98.3241 126.5514 0015744  63.3056  48.2996 14.25381998731410
